GLOBALSTAR M068 [-]     
1 32266U 07048D   23254.33334750 -.00000065  00000+0  21409-3 0  9992
2 32266  51.9879 107.8849 0001186 113.4118  57.2047 12.62766116736089
GLOBALSTAR M079 [+]     
1 37188U 10054A   23254.56365653 -.00000073  00000+0  17049-3 0  9996
2 37188  52.0043 302.1278 0000294  85.6776  82.9078 12.62267613595043
GLOBALSTAR M074 [+]     
1 37189U 10054B   23254.39747196 -.00000073  00000+0  16995-3 0  9993
2 37189  52.0018 302.0562 0000470 104.9280 268.2058 12.62269678595637
GLOBALSTAR M076 [+]     
1 37190U 10054C   23254.53159683 -.00000061  00000+0  23761-3 0  9995
2 37190  52.0032 301.7589 0000770  53.9926  89.8477 12.62260980595362
GLOBALSTAR M077 [+]     
1 37191U 10054D   23254.33172729 -.00000083  00000+0  11682-3 0  9993
2 37191  52.0051 259.0379 0000381  93.3090 280.3989 12.62260682595718
GLOBALSTAR M075 [+]     
1 37192U 10054E   23254.51622348 -.00000086  00000+0  98278-4 0  9991
2 37192  51.9975 344.4205 0000418  89.0726 284.1442 12.62260978594597
GLOBALSTAR M073 [+]     
1 37193U 10054F   23254.27873894 -.00000080  00000+0  12998-3 0  9997
2 37193  52.0040 258.4708 0000306  82.9399 290.4694 12.62267392596395
GLOBALSTAR M083 [+]     
1 37739U 11033A   23254.24007064 -.00000111  00000+0 -37691-4 0  9990
2 37739  51.9843 208.1981 0000130  79.5455  59.1536 12.62268737565402
GLOBALSTAR M088 [+]     
1 37740U 11033B   23254.37927788 -.00000083  00000+0  11425-3 0  9993
2 37740  51.9725 113.8098 0000491  56.2446 114.9153 12.62265404560965
GLOBALSTAR M091 [+]     
1 37741U 11033C   23254.51737559 -.00000084  00000+0  10901-3 0  9994
2 37741  51.9995  75.7898 0000477  71.7464 306.6410 12.62266172561774
GLOBALSTAR M085 [+]     
1 37742U 11033D   23254.59712105 -.00000100  00000+0  22867-4 0  9997
2 37742  51.9890  27.1550 0000490  99.3495 342.5248 12.62266711562295
GLOBALSTAR M081 [+]     
1 37743U 11033E   23254.54354462 -.00000105  00000+0 -52513-5 0  9999
2 37743  51.9980  29.7076 0000526  72.5149   5.4369 12.62270690562432
GLOBALSTAR M089 [+]     
1 37744U 11033F   23254.67757080 -.00000079  00000+0  13768-3 0  9993
2 37744  51.9957 343.6521 0000759  86.6410  60.2288 12.62266573563542
GLOBALSTAR M084 [+]     
1 38040U 11080A   23254.61708689 -.00000107  00000+0 -16490-4 0  9999
2 38040  51.9995 210.7815 0000655  64.2277 107.0600 12.62265615541261
GLOBALSTAR M080 [+]     
1 38041U 11080B   23254.66980715 -.00000110  00000+0 -36841-4 0  9993
2 38041  52.0048 212.0005 0000773  50.0132 121.4405 12.62264282541535
GLOBALSTAR M082 [+]     
1 38042U 11080C   23254.52445265 -.00000104  00000+0 -15515-5 0  9994
2 38042  52.0073 167.8219 0000220 152.0879  18.6572 12.62270471542086
GLOBALSTAR M092 [+]     
1 38043U 11080D   23254.73528001 -.00000110  00000+0 -37268-4 0  9993
2 38043  52.0073 257.5226 0000662  90.6261  78.8718 12.62271915540772
GLOBALSTAR M090 [+]     
1 38044U 11080E   23254.47171633 -.00000102  00000+0  10815-4 0  9999
2 38044  51.9881 162.6221 0000349  51.3252 119.5924 12.62267457542191
GLOBALSTAR M086 [+]     
1 38045U 11080F   23254.49792075 -.00000105  00000+0 -71957-5 0  9990
2 38045  51.9892 163.0413 0001225 358.8995 172.3382 12.62280474542149
GLOBALSTAR M097 [+]     
1 39072U 13005A   23254.24953939 -.00000088  00000+0  88544-4 0  9999
2 39072  52.0043  77.6900 0000454  72.5272 287.5645 12.62270647489368
GLOBALSTAR M093 [+]     
1 39073U 13005B   23254.53966743 -.00000086  00000+0  10078-3 0  9993
2 39073  51.9813  71.1405 0000337  49.0154 311.0742 12.62266555489352
GLOBALSTAR M094 [+]     
1 39074U 13005C   23254.53972847 -.00000094  00000+0  53341-4 0  9996
2 39074  51.9987 344.8814 0000409  94.8414 265.2500 12.62267163490985
GLOBALSTAR M096 [+]     
1 39075U 13005D   23254.55276854 -.00000098  00000+0  30176-4 0  9999
2 39075  52.0094  32.8482 0000408  86.2482 273.8431 12.62268303490234
GLOBALSTAR M078 [+]     
1 39076U 13005E   23254.36771958 -.00000194  00000+0 -50082-3 0  9999
2 39076  51.9867 118.7979 0000862 152.1814 207.9099 12.62269653488483
GLOBALSTAR M095 [+]     
1 39077U 13005F   23254.31546410 -.00000088  00000+0  89360-4 0  9991
2 39077  51.9789 116.4780 0000238 138.3079 221.7806 12.62268647488334
GLOBALSTAR M087 [+]     
1 52888U 22064A   23254.26951376 -.00000089  00000+0  75238-4 0  9996
2 52888  51.9750 104.4238 0009853  18.2760 341.8493 13.37552345 60063
